{"type": "FeatureCollection", "features": [ {"type": "Feature", "properties": {"norad_id": 31056, "name": "FENGYUN 1C DEB", "group": "fengyun-1c-debris", "lat": 14.340885056716123, "lon": -24.004164123403402, "alt_km": 835.8971643585846, "timestamp": "2025-12-21T22:41:41.740259+00:00", "meta": {"OBJECT_NAME": "FENGYUN 1C DEB", "OBJECT_ID": "1999-025BFA", "EPOCH": "2025-12-18T10:27:05.770944", "MEAN_MOTION": 14.14314319, "ECCENTRICITY": 0.0025209, "INCLINATION": 98.6671, "RA_OF_ASC_NODE": 334.8253, "ARG_OF_PERICENTER": 326.3437, "MEAN_ANOMALY": 186.0528, "EPHEMERIS_TYPE": 0, "CLASSIFICATION_TYPE": "U", "NORAD_CAT_ID": 31056, "ELEMENT_SET_NO": 999, "REV_AT_EPOCH": 96898, "BSTAR": 0.00032091776, "MEAN_MOTION_DOT": 5.72e-06, "MEAN_MOTION_DDOT": 0}, "tle": {"line1": "1 31056U 99025BFA 25352.43548346  .00000572  00000+0  32092-3 0  9996", "line2": "2 31056  98.6671 334.8253 0025209 326.3437 186.0528 14.14314319968989"}}, "geometry": {"type": "Point", "coordinates": [-24.004164123403402, 14.340885056716123]}}, {"type": "Feature", "properties": {"norad_id": 31057, "name": "FENGYUN 1C DEB", "group": "fengyun-1c-debris", "lat": -77.47985230573578, "lon": 169.5009473252412, "alt_km": 562.0583638069984, "timestamp": "2025-12-21T22:41:41.740269+00:00", "meta": {"OBJECT_NAME": "FENGYUN 1C DEB", "OBJECT_ID": "1999-025BFB", "EPOCH": "2025-12-18T22:05:50.245152", "MEAN_MOTION": 14.79471087, "ECCENTRICITY": 0.0137517, "INCLINATION": 99.2565, "RA_OF_ASC_NODE": 33.2779, "ARG_OF_PERICENTER": 232.6273, "MEAN_ANOMALY": 126.2347, "EPHEMERIS_TYPE": 0, "CLASSIFICATION_TYPE": "U", "NORAD_CAT_ID": 31057, "ELEMENT_SET_NO": 999, "REV_AT_EPOCH": 62044, "BSTAR": 0.00071207, "MEAN_MOTION_DOT": 6.17e-05, "MEAN_MOTION_DDOT": 0}, "tle": {"line1": "1 31057U 99025BFB 25352.92072043  .00006170  00000+0  71207-3 0  9998", "line2": "2 31057  99.2565  33.2779 0137517 232.6273 126.2347 14.79471087620443"}}, "geometry": {"type": "Point", "coordinates": [169.5009473252412, -77.47985230573578]}}, {"type": "Feature", "properties": {"norad_id": 31058, "name": "FENGYUN 1C DEB", "group": "fengyun-1c-debris", "lat": -34.953585694419324, "lon": -46.3229121145646, "alt_km": 672.939303034259, "timestamp": "2025-12-21T22:41:41.740279+00:00", "meta": {"OBJECT_NAME": "FENGYUN 1C DEB", "OBJECT_ID": "1999-025BFC", "EPOCH": "2025-12-21T03:20:18.224448", "MEAN_MOTION": 14.76453424, "ECCENTRICITY": 0.00952417, "INCLINATION": 99.5683, "RA_OF_ASC_NODE": 305.9514, "ARG_OF_PERICENTER": 80.64, "MEAN_ANOMALY": 280.5558, "EPHEMERIS_TYPE": 0, "CLASSIFICATION_TYPE": "U", "NORAD_CAT_ID": 31058, "ELEMENT_SET_NO": 999, "REV_AT_EPOCH": 99673, "BSTAR": 0.00082322872, "MEAN_MOTION_DOT": 6.101e-05, "MEAN_MOTION_DDOT": 0}, "tle": {"line1": "1 31058U 99025BFC 25355.13909982  .00006101  00000+0  82323-3 0  9991", "line2": "2 31058  99.5683 305.9514 0095241  80.6400 280.5558 14.76453424996732"}}, "geometry": {"type": "Point", "coordinates": [-46.3229121145646, -34.953585694419324]}}, {"type": "Feature", "properties": {"norad_id": 31062, "name": "FENGYUN 1C DEB", "group": "fengyun-1c-debris", "lat": 42.107904959670506, "lon": 169.59384074288542, "alt_km": 1015.8133076783924, "timestamp": "2025-12-21T22:41:41.740300+00:00", "meta": {"OBJECT_NAME": "FENGYUN 1C DEB", "OBJECT_ID": "1999-025BFG", "EPOCH": "2025-12-20T18:39:16.331040", "MEAN_MOTION": 13.75695687, "ECCENTRICITY": 0.01714227, "INCLINATION": 98.9966, "RA_OF_ASC_NODE": 176.7226, "ARG_OF_PERICENTER": 296.4526, "MEAN_ANOMALY": 81.3659, "EPHEMERIS_TYPE": 0, "CLASSIFICATION_TYPE": "U", "NORAD_CAT_ID": 31062, "ELEMENT_SET_NO": 999, "REV_AT_EPOCH": 94344, "BSTAR": 0.00020778583, "MEAN_MOTION_DOT": 1.81e-06, "MEAN_MOTION_DDOT": 0}, "tle": {"line1": "1 31062U 99025BFG 25354.77727235  .00000181  00000+0  20779-3 0  9993", "line2": "2 31062  98.9966 176.7226 0171422 296.4526  81.3659 13.75695687943446"}}, "geometry": {"type": "Point", "coordinates": [169.59384074288542, 42.107904959670506]}}, {"type": "Feature", "properties": {"norad_id": 31064, "name": "FENGYUN 1C DEB", "group": "fengyun-1c-debris", "lat": -69.51052372235952, "lon": 2.1995629818638527, "alt_km": 703.0170678989243, "timestamp": "2025-12-21T22:41:41.740312+00:00", "meta": {"OBJECT_NAME": "FENGYUN 1C DEB", "OBJECT_ID": "1999-025BFJ", "EPOCH": "2025-12-21T04:43:40.179648", "MEAN_MOTION": 14.22153022, "ECCENTRICITY": 0.02409976, "INCLINATION": 98.5743, "RA_OF_ASC_NODE": 337.6577, "ARG_OF_PERICENTER": 337.0395, "MEAN_ANOMALY": 83.0249, "EPHEMERIS_TYPE": 0, "CLASSIFICATION_TYPE": "U", "NORAD_CAT_ID": 31064, "ELEMENT_SET_NO": 999, "REV_AT_EPOCH": 97375, "BSTAR": 0.00026684227, "MEAN_MOTION_DOT": 7.46e-06, "MEAN_MOTION_DDOT": 0}, "tle": {"line1": "1 31064U 99025BFJ 25355.19699282  .00000746  00000+0  26684-3 0  9990", "line2": "2 31064  98.5743 337.6577 0240997 337.0395  83.0249 14.22153022973750"}}, "geometry": {"type": "Point", "coordinates": [2.1995629818638527, -69.51052372235952]}}, {"type": "Feature", "properties": {"norad_id": 31065, "name": "FENGYUN 1C DEB", "group": "fengyun-1c-debris", "lat": 59.95875092274357, "lon": -0.14834543464803118, "alt_km": 778.1283150246609, "timestamp": "2025-12-21T22:41:41.740322+00:00", "meta": {"OBJECT_NAME": "FENGYUN 1C DEB", "OBJECT_ID": "1999-025BFK", "EPOCH": "2025-12-20T07:44:23.606880", "MEAN_MOTION": 14.28204774, "ECCENTRICITY": 0.00348587, "INCLINATION": 98.4646, "RA_OF_ASC_NODE": 13.1998, "ARG_OF_PERICENTER": 9.0765, "MEAN_ANOMALY": 351.1039, "EPHEMERIS_TYPE": 0, "CLASSIFICATION_TYPE": "U", "NORAD_CAT_ID": 31065, "ELEMENT_SET_NO": 999, "REV_AT_EPOCH": 64686, "BSTAR": 0.00062313484, "MEAN_MOTION_DOT": 1.52e-05, "MEAN_MOTION_DDOT": 0}, "tle": {"line1": "1 31065U 99025BFK 25354.32249545  .00001520  00000+0  62313-3 0  9998", "line2": "2 31065  98.4646  13.1998 0034858   9.0765 351.1039 14.28204774646861"}}, "geometry": {"type": "Point", "coordinates": [-0.14834543464803118, 59.95875092274357]}}, {"type": "Feature", "properties": {"norad_id": 31068, "name": "FENGYUN 1C DEB", "group": "fengyun-1c-debris", "lat": -13.527092245130758, "lon": 155.6385699585108, "alt_km": 888.3784818932181, "timestamp": "2025-12-21T22:41:41.740332+00:00", "meta": {"OBJECT_NAME": "FENGYUN 1C DEB", "OBJECT_ID": "1999-025BFN", "EPOCH": "2025-12-18T05:11:10.079232", "MEAN_MOTION": 14.09194848, "ECCENTRICITY": 0.01658276, "INCLINATION": 98.6292, "RA_OF_ASC_NODE": 334.1581, "ARG_OF_PERICENTER": 102.7701, "MEAN_ANOMALY": 259.2059, "EPHEMERIS_TYPE": 0, "CLASSIFICATION_TYPE": "U", "NORAD_CAT_ID": 31068, "ELEMENT_SET_NO": 999, "REV_AT_EPOCH": 96432, "BSTAR": 9.338264e-05, "MEAN_MOTION_DOT": 1.44e-06, "MEAN_MOTION_DDOT": 0}, "tle": {"line1": "1 31068U 99025BFN 25352.21608888  .00000144  00000+0  93383-4 0  9999", "line2": "2 31068  98.6292 334.1581 0165827 102.7701 259.2059 14.09194848964322"}}, "geometry": {"type": "Point", "coordinates": [155.6385699585108, -13.527092245130758]}}, {"type": "Feature", "properties": {"norad_id": 31069, "name": "FENGYUN 1C DEB", "group": "fengyun-1c-debris", "lat": -29.19907704903517, "lon": 162.21792833307737, "alt_km": 693.6445397426742, "timestamp": "2025-12-21T22:41:41.740342+00:00", "meta": {"OBJECT_NAME": "FENGYUN 1C DEB", "OBJECT_ID": "1999-025BFP", "EPOCH": "2025-12-20T17:09:56.113056", "MEAN_MOTION": 14.57151959, "ECCENTRICITY": 0.01043248, "INCLINATION": 99.0993, "RA_OF_ASC_NODE": 155.736, "ARG_OF_PERICENTER": 53.4161, "MEAN_ANOMALY": 307.6579, "EPHEMERIS_TYPE": 0, "CLASSIFICATION_TYPE": "U", "NORAD_CAT_ID": 31069, "ELEMENT_SET_NO": 999, "REV_AT_EPOCH": 98802, "BSTAR": 0.00037067692, "MEAN_MOTION_DOT": 1.741e-05, "MEAN_MOTION_DDOT": 0}, "tle": {"line1": "1 31069U 99025BFP 25354.71523279  .00001741  00000+0  37068-3 0  9998", "line2": "2 31069  99.0993 155.7360 0104324  53.4161 307.6579 14.57151959988022"}}, "geometry": {"type": "Point", "coordinates": [162.21792833307737, -29.19907704903517]}}, {"type": "Feature", "properties": {"norad_id": 31071, "name": "FENGYUN 1C DEB", "group": "fengyun-1c-debris", "lat": -75.85682731313057, "lon": 113.59105154909241, "alt_km": 688.758923618173, "timestamp": "2025-12-21T22:41:41.740353+00:00", "meta": {"OBJECT_NAME": "FENGYUN 1C DEB", "OBJECT_ID": "1999-025BFR", "EPOCH": "2025-12-17T11:36:27.822240", "MEAN_MOTION": 14.52669079, "ECCENTRICITY": 0.00558821, "INCLINATION": 99.0414, "RA_OF_ASC_NODE": 69.5951, "ARG_OF_PERICENTER": 267.3702, "MEAN_ANOMALY": 92.1094, "EPHEMERIS_TYPE": 0, "CLASSIFICATION_TYPE": "U", "NORAD_CAT_ID": 31071, "ELEMENT_SET_NO": 999, "REV_AT_EPOCH": 65563, "BSTAR": 0.00084122866, "MEAN_MOTION_DOT": 3.464e-05, "MEAN_MOTION_DDOT": 0}, "tle": {"line1": "1 31071U 99025BFR 25351.48365535  .00003464  00000+0  84123-3 0  9999", "line2": "2 31071  99.0414  69.5951 0055882 267.3702  92.1094 14.52669079655630"}}, "geometry": {"type": "Point", "coordinates": [113.59105154909241, -75.85682731313057]}}, {"type": "Feature", "properties": {"norad_id": 31072, "name": "FENGYUN 1C DEB", "group": "fengyun-1c-debris", "lat": -38.06710432007527, "lon": 9.31889541269249, "alt_km": 862.2358683870916, "timestamp": "2025-12-21T22:41:41.740364+00:00", "meta": {"OBJECT_NAME": "FENGYUN 1C DEB", "OBJECT_ID": "1999-025BFS", "EPOCH": "2025-12-21T06:01:50.370816", "MEAN_MOTION": 14.2551024, "ECCENTRICITY": 0.0210319, "INCLINATION": 99.3314, "RA_OF_ASC_NODE": 1.1813, "ARG_OF_PERICENTER": 73.5034, "MEAN_ANOMALY": 288.9138, "EPHEMERIS_TYPE": 0, "CLASSIFICATION_TYPE": "U", "NORAD_CAT_ID": 31072, "ELEMENT_SET_NO": 999, "REV_AT_EPOCH": 96764, "BSTAR": 0.00048478, "MEAN_MOTION_DOT": 1.392e-05, "MEAN_MOTION_DDOT": 0}, "tle": {"line1": "1 31072U 99025BFS 25355.25127744  .00001392  00000+0  48478-3 0  9998", "line2": "2 31072  99.3314   1.1813 0210319  73.5034 288.9138 14.25510240967641"}}, "geometry": {"type": "Point", "coordinates": [9.31889541269249, -38.06710432007527]}}]}